{"type": "FeatureCollection", "features": [{"id": "0", "type": "Feature", "properties": {"class": 1}, "geometry": {"type": "Polygon", "coordinates": [[[389.5, 598.0], [389.5, 597.0], [389.5, 596.0], [389.5, 595.0], [389.5, 594.0], [389.5, 593.0], [389.5, 592.0], [389.5, 591.0], [389.5, 590.0], [389.5, 589.0], [389.5, 588.0], [389.5, 587.0], [389.5, 586.0], [389.5, 585.0], [389.5, 584.0], [389.5, 583.0], [389.5, 582.0], [389.5, 581.0], [389.5, 580.0], [389.5, 579.0], [389.5, 578.0], [389.5, 577.0], [389.5, 576.0], [389.5, 575.0], [389.5, 574.0], [389.5, 573.0], [389.5, 572.0], [389.5, 571.0], [389.5, 570.0], [389.0, 569.5], [388.5, 569.0], [388.5, 568.0], [388.5, 567.0], [388.5, 566.0], [388.5, 565.0], [388.5, 564.0], [388.5, 563.0], [388.5, 562.0], [388.5, 561.0], [388.5, 560.0], [388.5, 559.0], [388.5, 558.0], [388.0, 557.5], [387.5, 557.0], [387.5, 556.0], [387.5, 555.0], [387.5, 554.0], [387.5, 553.0], [387.5, 552.0], [387.5, 551.0], [387.5, 550.0], [387.5, 549.0], [387.0, 548.5], [386.5, 548.0], [386.5, 547.0], [386.5, 546.0], [386.5, 545.0], [386.5, 544.0], [386.5, 543.0], [386.0, 542.5], [385.5, 542.0], [385.5, 541.0], [385.5, 540.0], [385.5, 539.0], [385.5, 538.0], [385.5, 537.0], [385.0, 536.5], [384.5, 536.0], [384.5, 535.0], [384.5, 534.0], [384.5, 533.0], [384.5, 532.0], [384.0, 531.5], [383.5, 531.0], [383.5, 530.0], [383.5, 529.0], [383.5, 528.0], [383.5, 527.0], [383.0, 526.5], [382.5, 526.0], [382.5, 525.0], [382.5, 524.0], [382.5, 523.0], [382.0, 522.5], [381.5, 522.0], [381.5, 521.0], [381.5, 520.0], [381.0, 519.5], [380.5, 519.0], [380.5, 518.0], [380.5, 517.0], [380.5, 516.0], [380.5, 515.0], [380.0, 514.5], [379.5, 514.0], [379.5, 513.0], [379.5, 512.0], [379.0, 511.5], [378.5, 511.0], [378.5, 510.0], [378.5, 509.0], [378.0, 508.5], [377.5, 508.0], [377.5, 507.0], [377.5, 506.0], [377.5, 505.0], [377.0, 504.5], [376.5, 504.0], [376.5, 503.0], [376.0, 502.5], [375.5, 502.0], [375.5, 501.0], [375.5, 500.0], [375.0, 499.5], [374.5, 499.0], [374.5, 498.0], [374.0, 497.5], [373.5, 497.0], [373.5, 496.0], [373.5, 495.0], [373.0, 494.5], [372.5, 494.0], [372.5, 493.0], [372.5, 492.0], [372.0, 491.5], [371.5, 491.0], [371.5, 490.0], [371.0, 489.5], [370.5, 489.0], [370.5, 488.0], [370.0, 487.5], [369.5, 487.0], [369.5, 486.0], [369.0, 485.5], [368.5, 485.0], [368.5, 484.0], [368.5, 483.0], [368.0, 482.5], [367.5, 482.0], [367.5, 481.0], [367.0, 480.5], [366.5, 480.0], [366.5, 479.0], [366.0, 478.5], [365.5, 478.0], [365.5, 477.0], [365.0, 476.5], [364.5, 476.0], [364.5, 475.0], [364.0, 474.5], [363.5, 474.0], [363.5, 473.0], [363.0, 472.5], [362.5, 472.0], [362.5, 471.0], [362.0, 470.5], [361.5, 470.0], [361.0, 469.5], [360.5, 469.0], [360.5, 468.0], [360.0, 467.5], [359.5, 467.0], [359.5, 466.0], [359.0, 465.5], [358.5, 465.0], [358.5, 464.0], [358.0, 463.5], [357.5, 463.0], [357.0, 462.5], [356.5, 462.0], [356.5, 461.0], [356.0, 460.5], [355.5, 460.0], [355.0, 459.5], [354.5, 459.0], [354.5, 458.0], [354.0, 457.5], [353.5, 457.0], [353.5, 456.0], [353.0, 455.5], [352.5, 455.0], [352.0, 454.5], [351.5, 454.0], [351.0, 453.5], [350.5, 453.0], [350.5, 452.0], [350.0, 451.5], [349.5, 451.0], [349.0, 450.5], [348.5, 450.0], [348.0, 449.5], [347.5, 449.0], [347.5, 448.0], [347.0, 447.5], [346.5, 447.0], [346.0, 446.5], [345.5, 446.0], [345.0, 445.5], [344.5, 445.0], [344.0, 444.5], [343.5, 444.0], [343.0, 443.5], [342.5, 443.0], [342.0, 442.5], [341.5, 442.0], [341.5, 441.0], [341.0, 440.5], [340.5, 440.0], [340.0, 439.5], [339.5, 439.0], [339.0, 438.5], [338.5, 438.0], [338.0, 437.5], [337.5, 437.0], [337.0, 436.5], [336.5, 436.0], [336.0, 435.5], [335.5, 435.0], [335.0, 434.5], [334.5, 434.0], [334.0, 433.5], [333.5, 433.0], [333.0, 432.5], [332.5, 432.0], [332.0, 431.5], [331.5, 431.0], [331.0, 430.5], [330.0, 430.5], [329.5, 430.0], [329.0, 429.5], [328.5, 429.0], [328.0, 428.5], [327.5, 428.0], [327.0, 427.5], [326.5, 427.0], [326.0, 426.5], [325.5, 426.0], [325.0, 425.5], [324.5, 425.0], [324.0, 424.5], [323.0, 424.5], [322.5, 424.0], [322.0, 423.5], [321.5, 423.0], [321.0, 422.5], [320.0, 422.5], [319.5, 422.0], [319.0, 421.5], [318.5, 421.0], [318.0, 420.5], [317.5, 420.0], [317.0, 419.5], [316.0, 419.5], [315.5, 419.0], [315.0, 418.5], [314.0, 418.5], [313.5, 418.0], [313.0, 417.5], [312.0, 417.5], [311.5, 417.0], [311.0, 416.5], [310.0, 416.5], [309.5, 416.0], [309.0, 415.5], [308.0, 415.5], [307.5, 415.0], [307.0, 414.5], [306.0, 414.5], [305.5, 414.0], [305.0, 413.5], [304.0, 413.5], [303.5, 413.0], [303.0, 412.5], [302.0, 412.5], [301.5, 412.0], [301.0, 411.5], [300.0, 411.5], [299.5, 411.0], [299.0, 410.5], [298.0, 410.5], [297.0, 410.5], [296.5, 410.0], [296.0, 409.5], [295.0, 409.5], [294.0, 409.5], [293.0, 409.5], [292.5, 409.0], [292.0, 408.5], [291.0, 408.5], [290.0, 408.5], [289.5, 408.0], [289.0, 407.5], [288.0, 407.5], [287.0, 407.5], [286.0, 407.5], [285.0, 407.5], [284.5, 407.0], [284.0, 406.5], [283.0, 406.5], [282.0, 406.5], [281.0, 406.5], [280.0, 406.5], [279.5, 406.0], [279.0, 405.5], [278.0, 405.5], [277.0, 405.5], [276.0, 405.5], [275.0, 405.5], [274.0, 405.5], [273.0, 405.5], [272.0, 405.5], [271.0, 405.5], [270.0, 405.5], [269.0, 405.5], [268.0, 405.5], [267.0, 405.5], [266.0, 405.5], [265.0, 405.5], [264.0, 405.5], [263.0, 405.5], [262.0, 405.5], [261.5, 406.0], [261.0, 406.5], [260.0, 406.5], [259.0, 406.5], [258.0, 406.5], [257.0, 406.5], [256.0, 406.5], [255.0, 406.5], [254.5, 407.0], [254.0, 407.5], [253.0, 407.5], [252.0, 407.5], [251.0, 407.5], [250.0, 407.5], [249.5, 408.0], [249.0, 408.5], [248.0, 408.5], [247.0, 408.5], [246.5, 409.0], [246.0, 409.5], [245.0, 409.5], [244.0, 409.5], [243.5, 410.0], [243.0, 410.5], [242.0, 410.5], [241.0, 410.5], [240.5, 411.0], [240.0, 411.5], [239.0, 411.5], [238.0, 411.5], [237.5, 412.0], [237.0, 412.5], [236.0, 412.5], [235.5, 413.0], [235.0, 413.5], [234.0, 413.5], [233.5, 414.0], [233.0, 414.5], [232.0, 414.5], [231.5, 415.0], [231.0, 415.5], [230.0, 415.5], [229.5, 416.0], [229.0, 416.5], [228.0, 416.5], [227.5, 417.0], [227.0, 417.5], [226.5, 418.0], [226.0, 418.5], [225.0, 418.5], [224.5, 419.0], [224.0, 419.5], [223.0, 419.5], [222.5, 420.0], [222.0, 420.5], [221.5, 421.0], [221.0, 421.5], [220.0, 421.5], [219.5, 422.0], [219.0, 422.5], [218.5, 423.0], [218.0, 423.5], [217.5, 424.0], [217.0, 424.5], [216.5, 425.0], [216.0, 425.5], [215.0, 425.5], [214.5, 426.0], [214.0, 426.5], [213.5, 427.0], [213.0, 427.5], [212.5, 428.0], [212.0, 428.5], [211.5, 429.0], [211.0, 429.5], [210.5, 430.0], [210.0, 430.5], [209.5, 431.0], [209.0, 431.5], [208.0, 431.5], [207.5, 432.0], [207.0, 432.5], [206.5, 433.0], [206.0, 433.5], [205.5, 434.0], [205.0, 434.5], [204.5, 435.0], [204.0, 435.5], [203.5, 436.0], [203.0, 436.5], [202.5, 437.0], [202.0, 437.5], [201.5, 438.0], [201.0, 438.5], [200.5, 439.0], [200.0, 439.5], [199.5, 440.0], [199.0, 440.5], [198.5, 441.0], [198.5, 442.0], [198.0, 442.5], [197.5, 443.0], [197.0, 443.5], [196.5, 444.0], [196.0, 444.5], [195.5, 445.0], [195.0, 445.5], [194.5, 446.0], [194.0, 446.5], [193.5, 447.0], [193.0, 447.5], [192.5, 448.0], [192.0, 448.5], [191.5, 449.0], [191.5, 450.0], [191.0, 450.5], [190.5, 451.0], [190.0, 451.5], [189.5, 452.0], [189.5, 453.0], [189.0, 453.5], [188.5, 454.0], [188.0, 454.5], [187.5, 455.0], [187.5, 456.0], [187.0, 456.5], [186.5, 457.0], [186.0, 457.5], [185.5, 458.0], [185.0, 458.5], [184.5, 459.0], [184.5, 460.0], [184.0, 460.5], [183.5, 461.0], [183.5, 462.0], [183.0, 462.5], [182.5, 463.0], [182.0, 463.5], [181.5, 464.0], [181.5, 465.0], [181.0, 465.5], [180.5, 466.0], [180.0, 466.5], [179.5, 467.0], [179.5, 468.0], [179.0, 468.5], [178.5, 469.0], [178.5, 470.0], [178.0, 470.5], [177.5, 471.0], [177.5, 472.0], [177.0, 472.5], [176.5, 473.0], [176.5, 474.0], [176.0, 474.5], [175.5, 475.0], [175.0, 475.5], [174.5, 476.0], [174.5, 477.0], [174.0, 477.5], [173.5, 478.0], [173.5, 479.0], [173.5, 480.0], [173.0, 480.5], [172.5, 481.0], [172.5, 482.0], [172.0, 482.5], [171.5, 483.0], [171.5, 484.0], [171.0, 484.5], [170.5, 485.0], [170.5, 486.0], [170.5, 487.0], [170.0, 487.5], [169.5, 488.0], [169.5, 489.0], [169.0, 489.5], [168.5, 490.0], [168.5, 491.0], [168.0, 491.5], [167.5, 492.0], [167.5, 493.0], [167.0, 493.5], [166.5, 494.0], [166.5, 495.0], [166.5, 496.0], [166.0, 496.5], [165.5, 497.0], [165.5, 498.0], [165.5, 499.0], [165.0, 499.5], [164.5, 500.0], [164.5, 501.0], [164.5, 502.0], [164.0, 502.5], [163.5, 503.0], [163.5, 504.0], [163.5, 505.0], [163.0, 505.5], [162.5, 506.0], [162.5, 507.0], [162.5, 508.0], [162.0, 508.5], [161.5, 509.0], [161.5, 510.0], [161.5, 511.0], [161.0, 511.5], [160.5, 512.0], [160.5, 513.0], [160.5, 514.0], [160.5, 515.0], [160.0, 515.5], [159.5, 516.0], [159.5, 517.0], [159.5, 518.0], [159.0, 518.5], [158.5, 519.0], [158.5, 520.0], [158.5, 521.0], [158.0, 521.5], [157.5, 522.0], [157.5, 523.0], [157.5, 524.0], [157.5, 525.0], [157.5, 526.0], [157.0, 526.5], [156.5, 527.0], [156.5, 528.0], [156.5, 529.0], [156.5, 530.0], [156.5, 531.0], [156.0, 531.5], [155.5, 532.0], [155.5, 533.0], [155.5, 534.0], [155.5, 535.0], [155.5, 536.0], [155.0, 536.5], [154.5, 537.0], [154.5, 538.0], [154.5, 539.0], [154.5, 540.0], [154.5, 541.0], [154.0, 541.5], [153.5, 542.0], [153.5, 543.0], [153.5, 544.0], [153.5, 545.0], [153.5, 546.0], [153.5, 547.0], [153.5, 548.0], [153.5, 549.0], [153.0, 549.5], [152.5, 550.0], [152.5, 551.0], [152.5, 552.0], [152.5, 553.0], [152.5, 554.0], [152.5, 555.0], [152.5, 556.0], [152.5, 557.0], [152.0, 557.5], [151.5, 558.0], [151.5, 559.0], [151.5, 560.0], [151.5, 561.0], [151.5, 562.0], [151.5, 563.0], [151.5, 564.0], [151.5, 565.0], [151.5, 566.0], [151.5, 567.0], [151.5, 568.0], [151.5, 569.0], [151.5, 570.0], [151.5, 571.0], [151.0, 571.5], [150.5, 572.0], [150.5, 573.0], [150.5, 574.0], [150.5, 575.0], [150.5, 576.0], [150.5, 577.0], [150.5, 578.0], [150.5, 579.0], [150.5, 580.0], [150.5, 581.0], [150.5, 582.0], [150.5, 583.0], [150.5, 584.0], [150.5, 585.0], [150.5, 586.0], [150.5, 587.0], [150.5, 588.0], [150.5, 589.0], [150.5, 590.0], [150.5, 591.0], [150.5, 592.0], [150.5, 593.0], [150.5, 594.0], [150.5, 595.0], [150.5, 596.0], [150.5, 597.0], [151.0, 597.5], [151.5, 598.0], [151.5, 599.0], [151.5, 600.0], [151.5, 601.0], [151.5, 602.0], [151.5, 603.0], [151.5, 604.0], [151.5, 605.0], [151.5, 606.0], [151.5, 607.0], [151.5, 608.0], [151.5, 609.0], [151.5, 610.0], [151.5, 611.0], [152.0, 611.5], [152.5, 612.0], [152.5, 613.0], [152.5, 614.0], [152.5, 615.0], [152.5, 616.0], [152.5, 617.0], [152.5, 618.0], [152.5, 619.0], [152.5, 620.0], [152.5, 621.0], [153.0, 621.5], [153.5, 622.0], [153.5, 623.0], [153.5, 624.0], [153.5, 625.0], [153.5, 626.0], [153.5, 627.0], [153.5, 628.0], [154.0, 628.5], [154.5, 629.0], [154.5, 630.0], [154.5, 631.0], [154.5, 632.0], [155.0, 632.5], [155.5, 633.0], [155.5, 634.0], [155.5, 635.0], [155.5, 636.0], [155.5, 637.0], [156.0, 637.5], [156.5, 638.0], [156.5, 639.0], [156.5, 640.0], [156.5, 641.0], [156.5, 642.0], [157.0, 642.5], [157.5, 643.0], [157.5, 644.0], [157.5, 645.0], [157.5, 646.0], [157.5, 647.0], [158.0, 647.5], [158.5, 648.0], [158.5, 649.0], [158.5, 650.0], [158.5, 651.0], [159.0, 651.5], [159.5, 652.0], [159.5, 653.0], [159.5, 654.0], [159.5, 655.0], [160.0, 655.5], [160.5, 656.0], [160.5, 657.0], [160.5, 658.0], [161.0, 658.5], [161.5, 659.0], [161.5, 660.0], [161.5, 661.0], [161.5, 662.0], [162.0, 662.5], [162.5, 663.0], [162.5, 664.0], [162.5, 665.0], [163.0, 665.5], [163.5, 666.0], [163.5, 667.0], [164.0, 667.5], [164.5, 668.0], [164.5, 669.0], [164.5, 670.0], [165.0, 670.5], [165.5, 671.0], [165.5, 672.0], [165.5, 673.0], [166.0, 673.5], [166.5, 674.0], [166.5, 675.0], [167.0, 675.5], [167.5, 676.0], [167.5, 677.0], [167.5, 678.0], [167.5, 679.0], [168.0, 679.5], [168.5, 680.0], [168.5, 681.0], [169.0, 681.5], [169.5, 682.0], [169.5, 683.0], [170.0, 683.5], [170.5, 684.0], [170.5, 685.0], [171.0, 685.5], [171.5, 686.0], [171.5, 687.0], [172.0, 687.5], [172.5, 688.0], [172.5, 689.0], [173.0, 689.5], [173.5, 690.0], [173.5, 691.0], [174.0, 691.5], [174.5, 692.0], [174.5, 693.0], [175.0, 693.5], [175.5, 694.0], [175.5, 695.0], [176.0, 695.5], [176.5, 696.0], [176.5, 697.0], [177.0, 697.5], [177.5, 698.0], [177.5, 699.0], [178.0, 699.5], [178.5, 700.0], [178.5, 701.0], [179.0, 701.5], [179.5, 702.0], [179.5, 703.0], [180.0, 703.5], [180.5, 704.0], [181.0, 704.5], [181.5, 705.0], [181.5, 706.0], [182.0, 706.5], [182.5, 707.0], [182.5, 708.0], [183.0, 708.5], [183.5, 709.0], [184.0, 709.5], [184.5, 710.0], [184.5, 711.0], [185.0, 711.5], [185.5, 712.0], [186.0, 712.5], [186.5, 713.0], [186.5, 714.0], [187.0, 714.5], [187.5, 715.0], [188.0, 715.5], [188.5, 716.0], [188.5, 717.0], [189.0, 717.5], [189.5, 718.0], [190.0, 718.5], [190.5, 719.0], [191.0, 719.5], [191.5, 720.0], [191.5, 721.0], [192.0, 721.5], [192.5, 722.0], [193.0, 722.5], [193.5, 723.0], [194.0, 723.5], [194.5, 724.0], [195.0, 724.5], [195.5, 725.0], [195.5, 726.0], [196.0, 726.5], [196.5, 727.0], [197.0, 727.5], [197.5, 728.0], [198.0, 728.5], [198.5, 729.0], [199.0, 729.5], [199.5, 730.0], [200.0, 730.5], [200.5, 731.0], [201.0, 731.5], [201.5, 732.0], [202.0, 732.5], [202.5, 733.0], [203.0, 733.5], [203.5, 734.0], [204.0, 734.5], [204.5, 735.0], [205.0, 735.5], [205.5, 736.0], [206.0, 736.5], [206.5, 737.0], [207.0, 737.5], [207.5, 738.0], [208.0, 738.5], [208.5, 739.0], [209.0, 739.5], [209.5, 740.0], [210.0, 740.5], [210.5, 741.0], [211.0, 741.5], [211.5, 742.0], [212.0, 742.5], [213.0, 742.5], [213.5, 743.0], [214.0, 743.5], [214.5, 744.0], [215.0, 744.5], [215.5, 745.0], [216.0, 745.5], [217.0, 745.5], [217.5, 746.0], [218.0, 746.5], [218.5, 747.0], [219.0, 747.5], [219.5, 748.0], [220.0, 748.5], [221.0, 748.5], [221.5, 749.0], [222.0, 749.5], [222.5, 750.0], [223.0, 750.5], [224.0, 750.5], [224.5, 751.0], [225.0, 751.5], [226.0, 751.5], [226.5, 752.0], [227.0, 752.5], [228.0, 752.5], [228.5, 753.0], [229.0, 753.5], [229.5, 754.0], [230.0, 754.5], [231.0, 754.5], [231.5, 755.0], [232.0, 755.5], [233.0, 755.5], [233.5, 756.0], [234.0, 756.5], [235.0, 756.5], [235.5, 757.0], [236.0, 757.5], [237.0, 757.5], [238.0, 757.5], [238.5, 758.0], [239.0, 758.5], [240.0, 758.5], [241.0, 758.5], [241.5, 759.0], [242.0, 759.5], [243.0, 759.5], [243.5, 760.0], [244.0, 760.5], [245.0, 760.5], [246.0, 760.5], [247.0, 760.5], [247.5, 761.0], [248.0, 761.5], [249.0, 761.5], [250.0, 761.5], [250.5, 762.0], [251.0, 762.5], [252.0, 762.5], [253.0, 762.5], [254.0, 762.5], [255.0, 762.5], [255.5, 763.0], [256.0, 763.5], [257.0, 763.5], [258.0, 763.5], [259.0, 763.5], [260.0, 763.5], [261.0, 763.5], [262.0, 763.5], [263.0, 763.5], [263.5, 764.0], [264.0, 764.5], [265.0, 764.5], [266.0, 764.5], [267.0, 764.5], [268.0, 764.5], [269.0, 764.5], [270.0, 764.5], [271.0, 764.5], [272.0, 764.5], [273.0, 764.5], [274.0, 764.5], [275.0, 764.5], [275.5, 764.0], [276.0, 763.5], [277.0, 763.5], [278.0, 763.5], [279.0, 763.5], [280.0, 763.5], [281.0, 763.5], [282.0, 763.5], [283.0, 763.5], [284.0, 763.5], [284.5, 763.0], [285.0, 762.5], [286.0, 762.5], [287.0, 762.5], [288.0, 762.5], [289.0, 762.5], [289.5, 762.0], [290.0, 761.5], [291.0, 761.5], [292.0, 761.5], [293.0, 761.5], [293.5, 761.0], [294.0, 760.5], [295.0, 760.5], [296.0, 760.5], [296.5, 760.0], [297.0, 759.5], [298.0, 759.5], [299.0, 759.5], [299.5, 759.0], [300.0, 758.5], [301.0, 758.5], [301.5, 758.0], [302.0, 757.5], [303.0, 757.5], [303.5, 757.0], [304.0, 756.5], [305.0, 756.5], [305.5, 756.0], [306.0, 755.5], [307.0, 755.5], [307.5, 755.0], [308.0, 754.5], [309.0, 754.5], [310.0, 754.5], [310.5, 754.0], [311.0, 753.5], [311.5, 753.0], [312.0, 752.5], [313.0, 752.5], [313.5, 752.0], [314.0, 751.5], [315.0, 751.5], [315.5, 751.0], [316.0, 750.5], [316.5, 750.0], [317.0, 749.5], [318.0, 749.5], [318.5, 749.0], [319.0, 748.5], [320.0, 748.5], [320.5, 748.0], [321.0, 747.5], [321.5, 747.0], [322.0, 746.5], [322.5, 746.0], [323.0, 745.5], [324.0, 745.5], [324.5, 745.0], [325.0, 744.5], [325.5, 744.0], [326.0, 743.5], [326.5, 743.0], [327.0, 742.5], [327.5, 742.0], [328.0, 741.5], [328.5, 741.0], [329.0, 740.5], [330.0, 740.5], [330.5, 740.0], [331.0, 739.5], [331.5, 739.0], [332.0, 738.5], [332.5, 738.0], [333.0, 737.5], [333.5, 737.0], [334.0, 736.5], [334.5, 736.0], [335.0, 735.5], [335.5, 735.0], [336.0, 734.5], [336.5, 734.0], [337.0, 733.5], [337.5, 733.0], [338.0, 732.5], [338.5, 732.0], [339.0, 731.5], [339.5, 731.0], [340.0, 730.5], [340.5, 730.0], [341.0, 729.5], [341.5, 729.0], [341.5, 728.0], [342.0, 727.5], [342.5, 727.0], [343.0, 726.5], [343.5, 726.0], [344.0, 725.5], [344.5, 725.0], [345.0, 724.5], [345.5, 724.0], [346.0, 723.5], [346.5, 723.0], [347.0, 722.5], [347.5, 722.0], [347.5, 721.0], [348.0, 720.5], [348.5, 720.0], [349.0, 719.5], [349.5, 719.0], [349.5, 718.0], [350.0, 717.5], [350.5, 717.0], [351.0, 716.5], [351.5, 716.0], [352.0, 715.5], [352.5, 715.0], [352.5, 714.0], [353.0, 713.5], [353.5, 713.0], [354.0, 712.5], [354.5, 712.0], [354.5, 711.0], [355.0, 710.5], [355.5, 710.0], [356.0, 709.5], [356.5, 709.0], [357.0, 708.5], [357.5, 708.0], [357.5, 707.0], [358.0, 706.5], [358.5, 706.0], [358.5, 705.0], [359.0, 704.5], [359.5, 704.0], [360.0, 703.5], [360.5, 703.0], [360.5, 702.0], [361.0, 701.5], [361.5, 701.0], [361.5, 700.0], [362.0, 699.5], [362.5, 699.0], [362.5, 698.0], [363.0, 697.5], [363.5, 697.0], [363.5, 696.0], [364.0, 695.5], [364.5, 695.0], [364.5, 694.0], [365.0, 693.5], [365.5, 693.0], [365.5, 692.0], [366.0, 691.5], [366.5, 691.0], [366.5, 690.0], [367.0, 689.5], [367.5, 689.0], [367.5, 688.0], [368.0, 687.5], [368.5, 687.0], [368.5, 686.0], [369.0, 685.5], [369.5, 685.0], [369.5, 684.0], [370.0, 683.5], [370.5, 683.0], [370.5, 682.0], [370.5, 681.0], [371.0, 680.5], [371.5, 680.0], [371.5, 679.0], [372.0, 678.5], [372.5, 678.0], [372.5, 677.0], [372.5, 676.0], [373.0, 675.5], [373.5, 675.0], [373.5, 674.0], [374.0, 673.5], [374.5, 673.0], [374.5, 672.0], [374.5, 671.0], [375.0, 670.5], [375.5, 670.0], [375.5, 669.0], [375.5, 668.0], [376.0, 667.5], [376.5, 667.0], [376.5, 666.0], [376.5, 665.0], [377.0, 664.5], [377.5, 664.0], [377.5, 663.0], [377.5, 662.0], [378.0, 661.5], [378.5, 661.0], [378.5, 660.0], [378.5, 659.0], [379.0, 658.5], [379.5, 658.0], [379.5, 657.0], [379.5, 656.0], [379.5, 655.0], [380.0, 654.5], [380.5, 654.0], [380.5, 653.0], [380.5, 652.0], [381.0, 651.5], [381.5, 651.0], [381.5, 650.0], [381.5, 649.0], [382.0, 648.5], [382.5, 648.0], [382.5, 647.0], [382.5, 646.0], [382.5, 645.0], [383.0, 644.5], [383.5, 644.0], [383.5, 643.0], [383.5, 642.0], [383.5, 641.0], [383.5, 640.0], [383.5, 639.0], [384.0, 638.5], [384.5, 638.0], [384.5, 637.0], [384.5, 636.0], [384.5, 635.0], [384.5, 634.0], [385.0, 633.5], [385.5, 633.0], [385.5, 632.0], [385.5, 631.0], [385.5, 630.0], [385.5, 629.0], [386.0, 628.5], [386.5, 628.0], [386.5, 627.0], [386.5, 626.0], [386.5, 625.0], [386.5, 624.0], [386.5, 623.0], [386.5, 622.0], [386.5, 621.0], [387.0, 620.5], [387.5, 620.0], [387.5, 619.0], [387.5, 618.0], [387.5, 617.0], [387.5, 616.0], [387.5, 615.0], [387.5, 614.0], [387.5, 613.0], [388.0, 612.5], [388.5, 612.0], [388.5, 611.0], [388.5, 610.0], [388.5, 609.0], [388.5, 608.0], [388.5, 607.0], [388.5, 606.0], [388.5, 605.0], [388.5, 604.0], [388.5, 603.0], [388.5, 602.0], [388.5, 601.0], [388.5, 600.0], [388.5, 599.0], [389.0, 598.5], [389.5, 598.0]]]}}, {"id": "48", "type": "Feature", "properties": {"class": 2}, "geometry": {"type": "Polygon", "coordinates": [[[389.0, 598.5], [388.5, 599.0], [388.5, 600.0], [388.5, 601.0], [388.5, 602.0], [388.5, 603.0], [388.5, 604.0], [388.5, 605.0], [388.5, 606.0], [388.5, 607.0], [388.5, 608.0], [388.5, 609.0], [388.5, 610.0], [388.5, 611.0], [388.5, 612.0], [388.0, 612.5], [387.5, 613.0], [387.5, 614.0], [387.5, 615.0], [387.5, 616.0], [387.5, 617.0], [387.5, 618.0], [387.5, 619.0], [387.5, 620.0], [387.0, 620.5], [386.5, 621.0], [386.5, 622.0], [386.5, 623.0], [386.5, 624.0], [386.5, 625.0], [386.5, 626.0], [386.5, 627.0], [386.5, 628.0], [386.0, 628.5], [385.5, 629.0], [385.5, 630.0], [385.5, 631.0], [385.5, 632.0], [385.5, 633.0], [385.0, 633.5], [384.5, 634.0], [384.5, 635.0], [384.5, 636.0], [384.5, 637.0], [384.5, 638.0], [384.0, 638.5], [383.5, 639.0], [383.5, 640.0], [383.5, 641.0], [383.5, 642.0], [383.5, 643.0], [383.5, 644.0], [383.0, 644.5], [382.5, 645.0], [382.5, 646.0], [382.5, 647.0], [382.5, 648.0], [382.0, 648.5], [381.5, 649.0], [381.5, 650.0], [381.5, 651.0], [381.0, 651.5], [380.5, 652.0], [380.5, 653.0], [380.5, 654.0], [380.0, 654.5], [379.5, 655.0], [379.5, 656.0], [379.5, 657.0], [379.5, 658.0], [379.0, 658.5], [378.5, 659.0], [378.5, 660.0], [378.5, 661.0], [378.0, 661.5], [377.5, 662.0], [377.5, 663.0], [377.5, 664.0], [377.0, 664.5], [376.5, 665.0], [376.5, 666.0], [376.5, 667.0], [376.0, 667.5], [375.5, 668.0], [375.5, 669.0], [375.5, 670.0], [375.0, 670.5], [374.5, 671.0], [374.5, 672.0], [374.5, 673.0], [374.0, 673.5], [373.5, 674.0], [373.5, 675.0], [373.0, 675.5], [372.5, 676.0], [372.5, 677.0], [372.5, 678.0], [372.0, 678.5], [371.5, 679.0], [371.5, 680.0], [371.0, 680.5], [370.5, 681.0], [370.5, 682.0], [370.5, 683.0], [370.0, 683.5], [369.5, 684.0], [369.5, 685.0], [369.0, 685.5], [368.5, 686.0], [368.5, 687.0], [368.0, 687.5], [367.5, 688.0], [367.5, 689.0], [367.0, 689.5], [366.5, 690.0], [366.5, 691.0], [366.0, 691.5], [365.5, 692.0], [365.5, 693.0], [365.0, 693.5], [364.5, 694.0], [364.5, 695.0], [364.0, 695.5], [363.5, 696.0], [363.5, 697.0], [363.0, 697.5], [362.5, 698.0], [362.5, 699.0], [362.0, 699.5], [361.5, 700.0], [361.5, 701.0], [361.0, 701.5], [360.5, 702.0], [360.5, 703.0], [360.0, 703.5], [359.5, 704.0], [359.0, 704.5], [358.5, 705.0], [358.5, 706.0], [358.0, 706.5], [357.5, 707.0], [357.5, 708.0], [357.0, 708.5], [356.5, 709.0], [356.0, 709.5], [355.5, 710.0], [355.0, 710.5], [354.5, 711.0], [354.5, 712.0], [354.0, 712.5], [353.5, 713.0], [353.0, 713.5], [352.5, 714.0], [352.5, 715.0], [352.0, 715.5], [351.5, 716.0], [351.0, 716.5], [350.5, 717.0], [350.0, 717.5], [349.5, 718.0], [349.5, 719.0], [349.0, 719.5], [348.5, 720.0], [348.0, 720.5], [347.5, 721.0], [347.5, 722.0], [347.0, 722.5], [346.5, 723.0], [346.0, 723.5], [345.5, 724.0], [345.0, 724.5], [344.5, 725.0], [344.0, 725.5], [343.5, 726.0], [343.0, 726.5], [342.5, 727.0], [342.0, 727.5], [341.5, 728.0], [341.5, 729.0], [341.0, 729.5], [340.5, 730.0], [340.0, 730.5], [339.5, 731.0], [339.0, 731.5], [338.5, 732.0], [338.0, 732.5], [337.5, 733.0], [337.0, 733.5], [336.5, 734.0], [336.0, 734.5], [335.5, 735.0], [335.0, 735.5], [334.5, 736.0], [334.0, 736.5], [333.5, 737.0], [333.0, 737.5], [332.5, 738.0], [332.0, 738.5], [331.5, 739.0], [331.0, 739.5], [330.5, 740.0], [330.0, 740.5], [329.0, 740.5], [328.5, 741.0], [328.0, 741.5], [327.5, 742.0], [327.0, 742.5], [326.5, 743.0], [326.0, 743.5], [325.5, 744.0], [325.0, 744.5], [324.5, 745.0], [324.0, 745.5], [323.0, 745.5], [322.5, 746.0], [322.0, 746.5], [321.5, 747.0], [321.0, 747.5], [320.5, 748.0], [320.0, 748.5], [319.0, 748.5], [318.5, 749.0], [318.0, 749.5], [317.0, 749.5], [316.5, 750.0], [316.0, 750.5], [315.5, 751.0], [315.0, 751.5], [314.0, 751.5], [313.5, 752.0], [313.0, 752.5], [312.0, 752.5], [311.5, 753.0], [311.0, 753.5], [310.5, 754.0], [310.0, 754.5], [309.0, 754.5], [308.0, 754.5], [307.5, 755.0], [307.0, 755.5], [306.0, 755.5], [305.5, 756.0], [305.0, 756.5], [304.0, 756.5], [303.5, 757.0], [303.0, 757.5], [302.0, 757.5], [301.5, 758.0], [301.0, 758.5], [300.0, 758.5], [299.5, 759.0], [299.0, 759.5], [298.0, 759.5], [297.0, 759.5], [296.5, 760.0], [296.0, 760.5], [295.0, 760.5], [294.0, 760.5], [293.5, 761.0], [293.0, 761.5], [292.0, 761.5], [291.0, 761.5], [290.0, 761.5], [289.5, 762.0], [289.0, 762.5], [288.0, 762.5], [287.0, 762.5], [286.0, 762.5], [285.0, 762.5], [284.5, 763.0], [284.0, 763.5], [283.0, 763.5], [282.0, 763.5], [281.0, 763.5], [280.0, 763.5], [279.0, 763.5], [278.0, 763.5], [277.0, 763.5], [276.0, 763.5], [275.5, 764.0], [275.0, 764.5], [274.0, 764.5], [273.0, 764.5], [272.0, 764.5], [271.0, 764.5], [270.0, 764.5], [269.0, 764.5], [268.0, 764.5], [267.0, 764.5], [266.0, 764.5], [265.0, 764.5], [264.0, 764.5], [263.5, 764.0], [263.0, 763.5], [262.0, 763.5], [261.0, 763.5], [260.0, 763.5], [259.0, 763.5], [258.0, 763.5], [257.0, 763.5], [256.0, 763.5], [255.5, 763.0], [255.0, 762.5], [254.0, 762.5], [253.0, 762.5], [252.0, 762.5], [251.0, 762.5], [250.5, 762.0], [250.0, 761.5], [249.0, 761.5], [248.0, 761.5], [247.5, 761.0], [247.0, 760.5], [246.0, 760.5], [245.0, 760.5], [244.0, 760.5], [243.5, 760.0], [243.0, 759.5], [242.0, 759.5], [241.5, 759.0], [241.0, 758.5], [240.0, 758.5], [239.0, 758.5], [238.5, 758.0], [238.0, 757.5], [237.0, 757.5], [236.0, 757.5], [235.5, 757.0], [235.0, 756.5], [234.0, 756.5], [233.5, 756.0], [233.0, 755.5], [232.0, 755.5], [231.5, 755.0], [231.0, 754.5], [230.0, 754.5], [229.5, 754.0], [229.0, 753.5], [228.5, 753.0], [228.0, 752.5], [227.0, 752.5], [226.5, 752.0], [226.0, 751.5], [225.0, 751.5], [224.5, 751.0], [224.0, 750.5], [223.0, 750.5], [222.5, 750.0], [222.0, 749.5], [221.5, 749.0], [221.0, 748.5], [220.0, 748.5], [219.5, 748.0], [219.0, 747.5], [218.5, 747.0], [218.0, 746.5], [217.5, 746.0], [217.0, 745.5], [216.0, 745.5], [215.5, 745.0], [215.0, 744.5], [214.5, 744.0], [214.0, 743.5], [213.5, 743.0], [213.0, 742.5], [212.0, 742.5], [211.5, 742.0], [211.0, 741.5], [210.5, 741.0], [210.0, 740.5], [209.5, 740.0], [209.0, 739.5], [208.5, 739.0], [208.0, 738.5], [207.5, 738.0], [207.0, 737.5], [206.5, 737.0], [206.0, 736.5], [205.5, 736.0], [205.0, 735.5], [204.5, 735.0], [204.0, 734.5], [203.5, 734.0], [203.0, 733.5], [202.5, 733.0], [202.0, 732.5], [201.5, 732.0], [201.0, 731.5], [200.5, 731.0], [200.0, 730.5], [199.5, 730.0], [199.0, 729.5], [198.5, 729.0], [198.0, 728.5], [197.5, 728.0], [197.0, 727.5], [196.5, 727.0], [196.0, 726.5], [195.5, 726.0], [195.5, 725.0], [195.0, 724.5], [194.5, 724.0], [194.0, 723.5], [193.5, 723.0], [193.0, 722.5], [192.5, 722.0], [192.0, 721.5], [191.5, 721.0], [191.5, 720.0], [191.0, 719.5], [190.5, 719.0], [190.0, 718.5], [189.5, 718.0], [189.0, 717.5], [188.5, 717.0], [188.5, 716.0], [188.0, 715.5], [187.5, 715.0], [187.0, 714.5], [186.5, 714.0], [186.5, 713.0], [186.0, 712.5], [185.5, 712.0], [185.0, 711.5], [184.5, 711.0], [184.5, 710.0], [184.0, 709.5], [183.5, 709.0], [183.0, 708.5], [182.5, 708.0], [182.5, 707.0], [182.0, 706.5], [181.5, 706.0], [181.5, 705.0], [181.0, 704.5], [180.5, 704.0], [180.0, 703.5], [179.5, 703.0], [179.5, 702.0], [179.0, 701.5], [178.5, 701.0], [178.5, 700.0], [178.0, 699.5], [177.5, 699.0], [177.5, 698.0], [177.0, 697.5], [176.5, 697.0], [176.5, 696.0], [176.0, 695.5], [175.5, 695.0], [175.5, 694.0], [175.0, 693.5], [174.5, 693.0], [174.5, 692.0], [174.0, 691.5], [173.5, 691.0], [173.5, 690.0], [173.0, 689.5], [172.5, 689.0], [172.5, 688.0], [172.0, 687.5], [171.5, 687.0], [171.5, 686.0], [171.0, 685.5], [170.5, 685.0], [170.5, 684.0], [170.0, 683.5], [169.5, 683.0], [169.5, 682.0], [169.0, 681.5], [168.5, 681.0], [168.5, 680.0], [168.0, 679.5], [167.5, 679.0], [167.5, 678.0], [167.5, 677.0], [167.5, 676.0], [167.0, 675.5], [166.5, 675.0], [166.5, 674.0], [166.0, 673.5], [165.5, 673.0], [165.5, 672.0], [165.5, 671.0], [165.0, 670.5], [164.5, 670.0], [164.5, 669.0], [164.5, 668.0], [164.0, 667.5], [163.5, 667.0], [163.5, 666.0], [163.0, 665.5], [162.5, 665.0], [162.5, 664.0], [162.5, 663.0], [162.0, 662.5], [161.5, 662.0], [161.5, 661.0], [161.5, 660.0], [161.5, 659.0], [161.0, 658.5], [160.5, 658.0], [160.5, 657.0], [160.5, 656.0], [160.0, 655.5], [159.5, 655.0], [159.5, 654.0], [159.5, 653.0], [159.5, 652.0], [159.0, 651.5], [158.5, 651.0], [158.5, 650.0], [158.5, 649.0], [158.5, 648.0], [158.0, 647.5], [157.5, 647.0], [157.5, 646.0], [157.5, 645.0], [157.5, 644.0], [157.5, 643.0], [157.0, 642.5], [156.5, 642.0], [156.5, 641.0], [156.5, 640.0], [156.5, 639.0], [156.5, 638.0], [156.0, 637.5], [155.5, 637.0], [155.5, 636.0], [155.5, 635.0], [155.5, 634.0], [155.5, 633.0], [155.0, 632.5], [154.5, 632.0], [154.5, 631.0], [154.5, 630.0], [154.5, 629.0], [154.0, 628.5], [153.5, 628.0], [153.5, 627.0], [153.5, 626.0], [153.5, 625.0], [153.5, 624.0], [153.5, 623.0], [153.5, 622.0], [153.0, 621.5], [152.5, 621.0], [152.5, 620.0], [152.5, 619.0], [152.5, 618.0], [152.5, 617.0], [152.5, 616.0], [152.5, 615.0], [152.5, 614.0], [152.5, 613.0], [152.5, 612.0], [152.0, 611.5], [151.5, 611.0], [151.5, 610.0], [151.5, 609.0], [151.5, 608.0], [151.5, 607.0], [151.5, 606.0], [151.5, 605.0], [151.5, 604.0], [151.5, 603.0], [151.5, 602.0], [151.5, 601.0], [151.5, 600.0], [151.5, 599.0], [151.5, 598.0], [151.0, 597.5], [150.5, 597.0], [150.5, 596.0], [150.5, 595.0], [150.5, 594.0], [150.5, 593.0], [150.5, 592.0], [150.5, 591.0], [150.5, 590.0], [150.5, 589.0], [150.5, 588.0], [150.5, 587.0], [150.5, 586.0], [150.5, 585.0], [150.5, 584.0], [150.5, 583.0], [150.5, 582.0], [150.5, 581.0], [150.5, 580.0], [150.5, 579.0], [150.5, 578.0], [150.5, 577.0], [150.5, 576.0], [150.5, 575.0], [150.5, 574.0], [150.5, 573.0], [150.5, 572.0], [151.0, 571.5], [151.5, 571.0], [151.5, 570.0], [151.5, 569.0], [151.5, 568.0], [151.5, 567.0], [151.5, 566.0], [151.5, 565.0], [151.5, 564.0], [151.5, 563.0], [151.5, 562.0], [151.5, 561.0], [151.5, 560.0], [151.5, 559.0], [151.5, 558.0], [152.0, 557.5], [152.5, 557.0], [152.5, 556.0], [152.5, 555.0], [152.5, 554.0], [152.5, 553.0], [152.5, 552.0], [152.5, 551.0], [152.5, 550.0], [153.0, 549.5], [153.5, 549.0], [153.5, 548.0], [153.5, 547.0], [153.5, 546.0], [153.5, 545.0], [153.5, 544.0], [153.5, 543.0], [153.5, 542.0], [154.0, 541.5], [154.5, 541.0], [154.5, 540.0], [154.5, 539.0], [154.5, 538.0], [154.5, 537.0], [155.0, 536.5], [155.5, 536.0], [155.5, 535.0], [155.5, 534.0], [155.5, 533.0], [155.5, 532.0], [156.0, 531.5], [156.5, 531.0], [156.5, 530.0], [156.5, 529.0], [156.5, 528.0], [156.5, 527.0], [157.0, 526.5], [157.5, 526.0], [157.5, 525.0], [157.5, 524.0], [157.5, 523.0], [157.5, 522.0], [158.0, 521.5], [158.5, 521.0], [158.5, 520.0], [158.5, 519.0], [159.0, 518.5], [159.5, 518.0], [159.5, 517.0], [159.5, 516.0], [160.0, 515.5], [160.5, 515.0], [160.5, 514.0], [160.5, 513.0], [160.5, 512.0], [161.0, 511.5], [161.5, 511.0], [161.5, 510.0], [161.5, 509.0], [162.0, 508.5], [162.5, 508.0], [162.5, 507.0], [162.5, 506.0], [163.0, 505.5], [163.5, 505.0], [163.5, 504.0], [163.5, 503.0], [164.0, 502.5], [164.5, 502.0], [164.5, 501.0], [164.5, 500.0], [165.0, 499.5], [165.5, 499.0], [165.5, 498.0], [165.5, 497.0], [166.0, 496.5], [166.5, 496.0], [166.5, 495.0], [166.5, 494.0], [167.0, 493.5], [167.5, 493.0], [167.5, 492.0], [168.0, 491.5], [168.5, 491.0], [168.5, 490.0], [169.0, 489.5], [169.5, 489.0], [169.5, 488.0], [170.0, 487.5], [170.5, 487.0], [170.5, 486.0], [170.5, 485.0], [171.0, 484.5], [171.5, 484.0], [171.5, 483.0], [172.0, 482.5], [172.5, 482.0], [172.5, 481.0], [173.0, 480.5], [173.5, 480.0], [173.5, 479.0], [173.5, 478.0], [174.0, 477.5], [174.5, 477.0], [174.5, 476.0], [175.0, 475.5], [175.5, 475.0], [176.0, 474.5], [176.5, 474.0], [176.5, 473.0], [177.0, 472.5], [177.5, 472.0], [177.5, 471.0], [178.0, 470.5], [178.5, 470.0], [178.5, 469.0], [179.0, 468.5], [179.5, 468.0], [179.5, 467.0], [180.0, 466.5], [180.5, 466.0], [181.0, 465.5], [181.5, 465.0], [181.5, 464.0], [182.0, 463.5], [182.5, 463.0], [183.0, 462.5], [183.5, 462.0], [183.5, 461.0], [184.0, 460.5], [184.5, 460.0], [184.5, 459.0], [185.0, 458.5], [185.5, 458.0], [186.0, 457.5], [186.5, 457.0], [187.0, 456.5], [187.5, 456.0], [187.5, 455.0], [188.0, 454.5], [188.5, 454.0], [189.0, 453.5], [189.5, 453.0], [189.5, 452.0], [190.0, 451.5], [190.5, 451.0], [191.0, 450.5], [191.5, 450.0], [191.5, 449.0], [192.0, 448.5], [192.5, 448.0], [193.0, 447.5], [193.5, 447.0], [194.0, 446.5], [194.5, 446.0], [195.0, 445.5], [195.5, 445.0], [196.0, 444.5], [196.5, 444.0], [197.0, 443.5], [197.5, 443.0], [198.0, 442.5], [198.5, 442.0], [198.5, 441.0], [199.0, 440.5], [199.5, 440.0], [200.0, 439.5], [200.5, 439.0], [201.0, 438.5], [201.5, 438.0], [202.0, 437.5], [202.5, 437.0], [203.0, 436.5], [203.5, 436.0], [204.0, 435.5], [204.5, 435.0], [205.0, 434.5], [205.5, 434.0], [206.0, 433.5], [206.5, 433.0], [207.0, 432.5], [207.5, 432.0], [208.0, 431.5], [209.0, 431.5], [209.5, 431.0], [210.0, 430.5], [210.5, 430.0], [211.0, 429.5], [211.5, 429.0], [212.0, 428.5], [212.5, 428.0], [213.0, 427.5], [213.5, 427.0], [214.0, 426.5], [214.5, 426.0], [215.0, 425.5], [216.0, 425.5], [216.5, 425.0], [217.0, 424.5], [217.5, 424.0], [218.0, 423.5], [218.5, 423.0], [219.0, 422.5], [219.5, 422.0], [220.0, 421.5], [221.0, 421.5], [221.5, 421.0], [222.0, 420.5], [222.5, 420.0], [223.0, 419.5], [224.0, 419.5], [224.5, 419.0], [225.0, 418.5], [226.0, 418.5], [226.5, 418.0], [227.0, 417.5], [227.5, 417.0], [228.0, 416.5], [229.0, 416.5], [229.5, 416.0], [230.0, 415.5], [231.0, 415.5], [231.5, 415.0], [232.0, 414.5], [233.0, 414.5], [233.5, 414.0], [234.0, 413.5], [235.0, 413.5], [235.5, 413.0], [236.0, 412.5], [237.0, 412.5], [237.5, 412.0], [238.0, 411.5], [239.0, 411.5], [240.0, 411.5], [240.5, 411.0], [241.0, 410.5], [242.0, 410.5], [243.0, 410.5], [243.5, 410.0], [244.0, 409.5], [245.0, 409.5], [246.0, 409.5], [246.5, 409.0], [247.0, 408.5], [248.0, 408.5], [249.0, 408.5], [249.5, 408.0], [250.0, 407.5], [251.0, 407.5], [252.0, 407.5], [253.0, 407.5], [254.0, 407.5], [254.5, 407.0], [255.0, 406.5], [256.0, 406.5], [257.0, 406.5], [258.0, 406.5], [259.0, 406.5], [260.0, 406.5], [261.0, 406.5], [261.5, 406.0], [262.0, 405.5], [263.0, 405.5], [264.0, 405.5], [265.0, 405.5], [266.0, 405.5], [267.0, 405.5], [268.0, 405.5], [269.0, 405.5], [270.0, 405.5], [271.0, 405.5], [272.0, 405.5], [273.0, 405.5], [274.0, 405.5], [275.0, 405.5], [276.0, 405.5], [277.0, 405.5], [278.0, 405.5], [279.0, 405.5], [279.5, 406.0], [280.0, 406.5], [281.0, 406.5], [282.0, 406.5], [283.0, 406.5], [284.0, 406.5], [284.5, 407.0], [285.0, 407.5], [286.0, 407.5], [287.0, 407.5], [288.0, 407.5], [289.0, 407.5], [289.5, 408.0], [290.0, 408.5], [291.0, 408.5], [292.0, 408.5], [292.5, 409.0], [293.0, 409.5], [294.0, 409.5], [295.0, 409.5], [296.0, 409.5], [296.5, 410.0], [297.0, 410.5], [298.0, 410.5], [299.0, 410.5], [299.5, 411.0], [300.0, 411.5], [301.0, 411.5], [301.5, 412.0], [302.0, 412.5], [303.0, 412.5], [303.5, 413.0], [304.0, 413.5], [305.0, 413.5], [305.5, 414.0], [306.0, 414.5], [307.0, 414.5], [307.5, 415.0], [308.0, 415.5], [309.0, 415.5], [309.5, 416.0], [310.0, 416.5], [311.0, 416.5], [311.5, 417.0], [312.0, 417.5], [313.0, 417.5], [313.5, 418.0], [314.0, 418.5], [315.0, 418.5], [315.5, 419.0], [316.0, 419.5], [317.0, 419.5], [317.5, 420.0], [318.0, 420.5], [318.5, 421.0], [319.0, 421.5], [319.5, 422.0], [320.0, 422.5], [321.0, 422.5], [321.5, 423.0], [322.0, 423.5], [322.5, 424.0], [323.0, 424.5], [324.0, 424.5], [324.5, 425.0], [325.0, 425.5], [325.5, 426.0], [326.0, 426.5], [326.5, 427.0], [327.0, 427.5], [327.5, 428.0], [328.0, 428.5], [328.5, 429.0], [329.0, 429.5], [329.5, 430.0], [330.0, 430.5], [331.0, 430.5], [331.5, 431.0], [332.0, 431.5], [332.5, 432.0], [333.0, 432.5], [333.5, 433.0], [334.0, 433.5], [334.5, 434.0], [335.0, 434.5], [335.5, 435.0], [336.0, 435.5], [336.5, 436.0], [337.0, 436.5], [337.5, 437.0], [338.0, 437.5], [338.5, 438.0], [339.0, 438.5], [339.5, 439.0], [340.0, 439.5], [340.5, 440.0], [341.0, 440.5], [341.5, 441.0], [341.5, 442.0], [342.0, 442.5], [342.5, 443.0], [343.0, 443.5], [343.5, 444.0], [344.0, 444.5], [344.5, 445.0], [345.0, 445.5], [345.5, 446.0], [346.0, 446.5], [346.5, 447.0], [347.0, 447.5], [347.5, 448.0], [347.5, 449.0], [348.0, 449.5], [348.5, 450.0], [349.0, 450.5], [349.5, 451.0], [350.0, 451.5], [350.5, 452.0], [350.5, 453.0], [351.0, 453.5], [351.5, 454.0], [352.0, 454.5], [352.5, 455.0], [353.0, 455.5], [353.5, 456.0], [353.5, 457.0], [354.0, 457.5], [354.5, 458.0], [354.5, 459.0], [355.0, 459.5], [355.5, 460.0], [356.0, 460.5], [356.5, 461.0], [356.5, 462.0], [357.0, 462.5], [357.5, 463.0], [358.0, 463.5], [358.5, 464.0], [358.5, 465.0], [359.0, 465.5], [359.5, 466.0], [359.5, 467.0], [360.0, 467.5], [360.5, 468.0], [360.5, 469.0], [361.0, 469.5], [361.5, 470.0], [362.0, 470.5], [362.5, 471.0], [362.5, 472.0], [363.0, 472.5], [363.5, 473.0], [363.5, 474.0], [364.0, 474.5], [364.5, 475.0], [364.5, 476.0], [365.0, 476.5], [365.5, 477.0], [365.5, 478.0], [366.0, 478.5], [366.5, 479.0], [366.5, 480.0], [367.0, 480.5], [367.5, 481.0], [367.5, 482.0], [368.0, 482.5], [368.5, 483.0], [368.5, 484.0], [368.5, 485.0], [369.0, 485.5], [369.5, 486.0], [369.5, 487.0], [370.0, 487.5], [370.5, 488.0], [370.5, 489.0], [371.0, 489.5], [371.5, 490.0], [371.5, 491.0], [372.0, 491.5], [372.5, 492.0], [372.5, 493.0], [372.5, 494.0], [373.0, 494.5], [373.5, 495.0], [373.5, 496.0], [373.5, 497.0], [374.0, 497.5], [374.5, 498.0], [374.5, 499.0], [375.0, 499.5], [375.5, 500.0], [375.5, 501.0], [375.5, 502.0], [376.0, 502.5], [376.5, 503.0], [376.5, 504.0], [377.0, 504.5], [377.5, 505.0], [377.5, 506.0], [377.5, 507.0], [377.5, 508.0], [378.0, 508.5], [378.5, 509.0], [378.5, 510.0], [378.5, 511.0], [379.0, 511.5], [379.5, 512.0], [379.5, 513.0], [379.5, 514.0], [380.0, 514.5], [380.5, 515.0], [380.5, 516.0], [380.5, 517.0], [380.5, 518.0], [380.5, 519.0], [381.0, 519.5], [381.5, 520.0], [381.5, 521.0], [381.5, 522.0], [382.0, 522.5], [382.5, 523.0], [382.5, 524.0], [382.5, 525.0], [382.5, 526.0], [383.0, 526.5], [383.5, 527.0], [383.5, 528.0], [383.5, 529.0], [383.5, 530.0], [383.5, 531.0], [384.0, 531.5], [384.5, 532.0], [384.5, 533.0], [384.5, 534.0], [384.5, 535.0], [384.5, 536.0], [385.0, 536.5], [385.5, 537.0], [385.5, 538.0], [385.5, 539.0], [385.5, 540.0], [385.5, 541.0], [385.5, 542.0], [386.0, 542.5], [386.5, 543.0], [386.5, 544.0], [386.5, 545.0], [386.5, 546.0], [386.5, 547.0], [386.5, 548.0], [387.0, 548.5], [387.5, 549.0], [387.5, 550.0], [387.5, 551.0], [387.5, 552.0], [387.5, 553.0], [387.5, 554.0], [387.5, 555.0], [387.5, 556.0], [387.5, 557.0], [388.0, 557.5], [388.5, 558.0], [388.5, 559.0], [388.5, 560.0], [388.5, 561.0], [388.5, 562.0], [388.5, 563.0], [388.5, 564.0], [388.5, 565.0], [388.5, 566.0], [388.5, 567.0], [388.5, 568.0], [388.5, 569.0], [389.0, 569.5], [389.5, 570.0], [389.5, 571.0], [389.5, 572.0], [389.5, 573.0], [389.5, 574.0], [389.5, 575.0], [389.5, 576.0], [389.5, 577.0], [389.5, 578.0], [389.5, 579.0], [389.5, 580.0], [389.5, 581.0], [389.5, 582.0], [389.5, 583.0], [389.5, 584.0], [389.5, 585.0], [389.5, 586.0], [389.5, 587.0], [389.5, 588.0], [389.5, 589.0], [389.5, 590.0], [389.5, 591.0], [389.5, 592.0], [389.5, 593.0], [389.5, 594.0], [389.5, 595.0], [389.5, 596.0], [389.5, 597.0], [389.5, 598.0], [389.0, 598.5]]]}}]}